NORAD_CAT_ID,OBJECT_NAME,OBJECT_TYPE,EPOCH,MEAN_MOTION,ECCENTRICITY,INCLINATION,RA_OF_ASC_NODE,ARG_OF_PERICENTER,MEAN_ANOMALY,BSTAR,MEAN_MOTION_DOT,MEAN_MOTION_DDOT,TLE_LINE0,TLE_LINE1,TLE_LINE2,SEMIMAJOR_AXIS,PERIOD,APOGEE,PERIGEE,DECAYED
55787.0,STARLINK-5811,PAYLOAD,2024-01-04 12:23:14,14.98332983,0.0002972,69.9998,49.5045,267.4454,92.6365,1.9236e-05,1.37e-06,0.0,0 STARLINK-5811,1 55787U 23028AY  24004.51614057  .00000137  00000-0  19236-4 0  9992,2 55787  69.9998  49.5045 0002972 267.4454  92.6365 14.98332983 47915,6950.184,96.107,574.114,569.983,0.0
55787.0,STARLINK-5811,PAYLOAD,2024-01-05 04:24:35,14.98324232,0.0002925,69.9998,47.8216,266.357,93.7255,1.5512e-05,9.2e-07,0.0,0 STARLINK-5811,1 55787U 23028AY  24005.18374638  .00000092  00000-0  15512-4 0  9997,2 55787  69.9998  47.8216 0002925 266.3570  93.7255 14.98324232 48000,6950.211,96.107,574.109,570.043,0.0
55787.0,STARLINK-5811,PAYLOAD,2024-01-05 12:25:16,14.98323885,0.0002932,69.9999,46.9801,266.5685,93.5138,9.2214e-06,1.7e-07,0.0,0 STARLINK-5811,1 55787U 23028AY  24005.51754787  .00000017  00000-0  92214-5 0  9993,2 55787  69.9999  46.9801 0002932 266.5685  93.5138 14.98323885 48065,6950.212,96.107,574.115,570.039,0.0
55787.0,STARLINK-5811,PAYLOAD,2024-01-06 04:26:36,14.98335641,0.0003,69.9996,45.2969,267.7554,92.3261,2.2723e-05,1.78e-06,0.0,0 STARLINK-5811,1 55787U 23028AY  24006.18513989  .00000178  00000-0  22723-4 0  9999,2 55787  69.9996  45.2969 0003000 267.7554  92.3261 14.98335641 48151,6950.175,96.107,574.125,569.955,0.0
55787.0,STARLINK-5811,PAYLOAD,2024-01-06 12:27:16,14.98338624,0.0003005,69.9996,44.4546,269.1893,90.8921,5.5134e-05,5.65e-06,0.0,0 STARLINK-5811,1 55787U 23028AY  24006.51893580  .00000565  00000-0  55134-4 0  9996,2 55787  69.9996  44.4546 0003005 269.1893  90.8921 14.98338624 48217,6950.166,96.106,574.12,569.943,0.0
55787.0,STARLINK-5811,PAYLOAD,2024-01-07 04:28:37,14.98327009,0.0002631,70.0005,42.7708,270.8297,89.256,5.3854e-05,5.5e-06,0.0,0 STARLINK-5811,1 55787U 23028AY  24007.18654243  .00000550  00000-0  53854-4 0  9992,2 55787  70.0005  42.7708 0002631 270.8297  89.2560 14.98327009 48309,6950.202,96.107,573.896,570.239,0.0
55787.0,STARLINK-5811,PAYLOAD,2024-01-07 12:29:17,14.98327418,0.0002739,70.0006,41.9293,273.2429,86.8416,4.5251e-05,4.47e-06,0.0,0 STARLINK-5811,1 55787U 23028AY  24007.52034365  .00000447  00000-0  45251-4 0  9994,2 55787  70.0006  41.9293 0002739 273.2429  86.8416 14.98327418 48366,6950.201,96.107,573.97,570.162,0.0
55787.0,STARLINK-5811,PAYLOAD,2024-01-08 02:54:29,14.98384478,0.0001918,70.0002,40.4145,253.991,106.1038,-0.0008635,-0.00010395,0.0,0 STARLINK-5811,1 55787U 23028AY  24008.12117732 -.00010395  00000-0 -86350-3 0  9990,2 55787  70.0002  40.4145 0001918 253.9910 106.1038 14.98384478 48444,6950.024,96.104,573.222,570.556,0.0
55787.0,STARLINK-5811,PAYLOAD,2024-01-08 12:31:17,14.98359088,0.0002173,70.0007,39.4047,265.392,94.6991,-0.00049659,-6.017e-05,0.0,0 STARLINK-5811,1 55787U 23028AY  24008.52173459 -.00006017  00000-0 -49659-3 0  9999,2 55787  70.0007  39.4047 0002173 265.3920  94.6991 14.98359088 48516,6950.103,96.105,573.478,570.458,0.0
55787.0,STARLINK-5811,PAYLOAD,2024-01-09 02:56:31,14.98325677,0.0002741,70.0012,37.8908,263.0961,96.9886,7.7724e-06,0.0,0.0,0 STARLINK-5811,1 55787U 23028AY  24009.12258212 -.00000000  00000-0  77724-5 0  9998,2 55787  70.0012  37.8908 0002741 263.0961  96.9886 14.98325677 48594,6950.206,96.107,573.976,570.166,0.0
55787.0,STARLINK-5811,PAYLOAD,2024-01-09 10:57:11,14.98326176,0.0002553,70.0009,37.0491,256.352,103.7354,2.1409e-06,-6.7e-07,0.0,0 STARLINK-5811,1 55787U 23028AY  24009.45638224 -.00000067  00000-0  21409-5 0  9991,2 55787  70.0009  37.0491 0002553 256.3520 103.7354 14.98326176 48655,6950.205,96.107,573.844,570.295,0.0
55787.0,STARLINK-5811,PAYLOAD,2024-01-10 02:58:31,14.98330786,0.0002794,70.0001,35.3654,264.4331,95.6509,5.3813e-06,-2.9e-07,0.0,0 STARLINK-5811,1 55787U 23028AY  24010.12397873 -.00000029  00000-0  53813-5 0  9991,2 55787  70.0001  35.3654 0002794 264.4331  95.6509 14.98330786 48749,6950.19,96.107,573.997,570.114,0.0
55787.0,STARLINK-5811,PAYLOAD,2024-01-10 10:59:12,14.98331385,0.0002869,70.0,34.5238,267.836,92.2471,6.6542e-06,-1.4e-07,0.0,0 STARLINK-5811,1 55787U 23028AY  24010.45777820 -.00000014  00000-0  66542-5 0  9998,2 55787  70.0000  34.5238 0002869 267.8360  92.2471 14.98331385 48803,6950.189,96.107,574.048,570.06,0.0
55787.0,STARLINK-5811,PAYLOAD,2024-01-11 03:00:32,14.9832842,0.0002895,69.9999,32.8399,266.8521,93.2307,3.0491e-06,-5.7e-07,0.0,0 STARLINK-5811,1 55787U 23028AY  24011.12537976 -.00000057  00000-0  30491-5 0  9990,2 55787  69.9999  32.8399 0002895 266.8521  93.2307 14.98328420 48897,6950.198,96.107,574.075,570.051,0.0
55787.0,STARLINK-5811,PAYLOAD,2024-01-11 11:01:12,14.98332161,0.0002857,70.0,31.9986,268.097,91.9862,4.5558e-05,4.51e-06,0.0,0 STARLINK-5811,1 55787U 23028AY  24011.45917603  .00000451  00000-0  45558-4 0  9991,2 55787  70.0000  31.9986 0002857 268.0970  91.9862 14.98332161 48950,6950.186,96.107,574.037,570.066,0.0
55787.0,STARLINK-5811,PAYLOAD,2024-01-12 03:02:33,14.98323611,0.0002648,70.0002,30.3154,266.0699,94.0158,3.0773e-05,2.74e-06,0.0,0 STARLINK-5811,1 55787U 23028AY  24012.12678133  .00000274  00000-0  30773-4 0  9994,2 55787  70.0002  30.3154 0002648 266.0699  94.0158 14.98323611 49049,6950.213,96.107,573.918,570.237,0.0
55787.0,STARLINK-5811,PAYLOAD,2024-01-12 11:03:14,14.98329456,0.0002811,70.0003,29.474,267.6684,92.4153,-1.12e-05,-2.27e-06,0.0,0 STARLINK-5811,1 55787U 23028AY  24012.46057925 -.00000227  00000-0 -11200-4 0  9995,2 55787  70.0003  29.4740 0002811 267.6684  92.4153 14.98329456 49100,6950.195,96.107,574.013,570.106,0.0
55787.0,STARLINK-5811,PAYLOAD,2024-01-13 03:04:34,14.98329939,0.0002729,70.0006,27.7905,265.4813,94.6035,-2.9104e-05,-4.4e-06,0.0,0 STARLINK-5811,1 55787U 23028AY  24013.12817977 -.00000440  00000-0 -29104-4 0  9999,2 55787  70.0006  27.7905 0002729 265.4813  94.6035 14.98329939 49193,6950.193,96.107,573.955,570.161,0.0
55787.0,STARLINK-5811,PAYLOAD,2024-01-13 11:05:14,14.98330871,0.0002744,70.0005,26.9479,267.1073,92.9772,-1.5365e-05,-2.76e-06,0.0,0 STARLINK-5811,1 55787U 23028AY  24013.46197884 -.00000276  00000-0 -15365-4 0  9995,2 55787  70.0005  26.9479 0002744 267.1073  92.9772 14.98330871 49256,6950.19,96.107,573.962,570.148,0.0
55787.0,STARLINK-5811,PAYLOAD,2024-01-14 04:42:43,14.98327811,0.000274,70.0004,25.0962,264.5546,95.53,2.0717e-05,1.54e-06,0.0,0 STARLINK-5811,1 55787U 23028AY  24014.19633972  .00000154  00000-0  20717-4 0  9999,2 55787  70.0004  25.0962 0002740 264.5546  95.5300 14.98327811 49351,6950.2,96.107,573.969,570.16,0.0
55787.0,STARLINK-5811,PAYLOAD,2024-01-14 09:31:07,14.98329073,0.0002718,70.0006,24.5913,265.2412,94.8437,3.5482e-05,3.3e-06,0.0,0 STARLINK-5811,1 55787U 23028AY  24014.39661873  .00000330  00000-0  35482-4 0  9993,2 55787  70.0006  24.5913 0002718 265.2412  94.8437 14.98329073 49397,6950.196,96.107,573.95,570.172,0.0
55787.0,STARLINK-5811,PAYLOAD,2024-01-15 09:33:08,14.98331145,0.0002763,70.0005,22.0664,266.1899,93.8945,2.1365e-05,1.62e-06,0.0,0 STARLINK-5811,1 55787U 23028AY  24015.39801739  .00000162  00000-0  21365-4 0  9999,2 55787  70.0005  22.0664 0002763 266.1899  93.8945 14.98331145 49533,6950.189,96.107,573.975,570.134,0.0
55787.0,STARLINK-5811,PAYLOAD,2024-01-16 09:35:10,14.98326644,0.0002699,70.0008,19.542,262.6425,97.4427,-3.0855e-05,-4.61e-06,0.0,0 STARLINK-5811,1 55787U 23028AY  24016.39942202 -.00000461  00000-0 -30855-4 0  9999,2 55787  70.0008  19.5420 0002699 262.6425  97.4427 14.98326644 49680,6950.203,96.107,573.944,570.192,0.0
55787.0,STARLINK-5811,PAYLOAD,2024-01-17 09:37:10,14.9833057,0.0002684,70.0009,17.0174,258.3914,101.6944,1.4013e-05,7.4e-07,0.0,0 STARLINK-5811,1 55787U 23028AY  24017.40081863  .00000074  00000-0  14013-4 0  9995,2 55787  70.0009  17.0174 0002684 258.3914 101.6944 14.98330570 49831,6950.191,96.107,573.922,570.191,0.0
55787.0,STARLINK-5811,PAYLOAD,2024-01-18 09:39:11,14.98329686,0.0002708,70.0009,14.4924,260.5318,99.5535,5.1339e-05,5.2e-06,0.0,0 STARLINK-5811,1 55787U 23028AY  24018.40221788  .00000520  00000-0  51339-4 0  9996,2 55787  70.0009  14.4924 0002708 260.5318  99.5535 14.98329686 49988,6950.194,96.107,573.941,570.177,0.0
55787.0,STARLINK-5811,PAYLOAD,2024-01-19 09:41:10,14.98352876,0.0002816,70.001,11.9677,253.0249,107.0601,0.00023053,2.66e-05,0.0,0 STARLINK-5811,1 55787U 23028AY  24019.40359454  .00002660  00000-0  23053-3 0  9997,2 55787  70.0010  11.9677 0002816 253.0249 107.0601 14.98352876 50132,6950.122,96.106,573.944,570.03,0.0
55787.0,STARLINK-5811,PAYLOAD,2024-01-19 22:30:16,14.98336683,0.000103,70.0035,10.6238,237.9237,122.1823,0.00010026,1.104e-05,0.0,0 STARLINK-5811,1 55787U 23028AY  24019.93768970  .00001104  00000-0  10026-3 0  9990,2 55787  70.0035  10.6238 0001030 237.9237 122.1823 14.98336683 50225,6950.172,96.107,572.753,571.321,0.0
55787.0,STARLINK-5811,PAYLOAD,2024-01-20 03:18:41,14.98322474,0.000283,70.001,10.1152,272.4367,87.6468,-0.00010678,-1.367e-05,0.0,0 STARLINK-5811,1 55787U 23028AY  24020.13798275 -.00001367  00000-0 -10678-3 0  9991,2 55787  70.0010  10.1152 0002830 272.4367  87.6468 14.98322474 50240,6950.216,96.107,574.048,570.114,0.0
55787.0,STARLINK-5811,PAYLOAD,2024-01-20 08:07:06,14.98321588,0.0002783,70.0006,9.6098,265.9076,94.1765,-0.00011824,-1.503e-05,0.0,0 STARLINK-5811,1 55787U 23028AY  24020.33826400 -.00001503  00000-0 -11824-3 0  9991,2 55787  70.0006   9.6098 0002783 265.9076  94.1765 14.98321588 50280,6950.219,96.108,574.018,570.15,0.0
55787.0,STARLINK-5811,PAYLOAD,2024-01-21 03:20:42,14.98327164,0.0002919,69.9999,7.589,266.6075,93.475,-3.6178e-05,-5.25e-06,0.0,0 STARLINK-5811,1 55787U 23028AY  24021.13937956 -.00000525  00000-0 -36178-4 0  9992,2 55787  69.9999   7.5890 0002919 266.6075  93.4750 14.98327164 50397,6950.202,96.107,574.095,570.038,0.0
